NORAD_CAT_ID,OBJECT_NAME,OBJECT_TYPE,EPOCH,MEAN_MOTION,ECCENTRICITY,INCLINATION,RA_OF_ASC_NODE,ARG_OF_PERICENTER,MEAN_ANOMALY,BSTAR,MEAN_MOTION_DOT,MEAN_MOTION_DDOT,TLE_LINE0,TLE_LINE1,TLE_LINE2,SEMIMAJOR_AXIS,PERIOD,APOGEE,PERIGEE,DECAYED
52999.0,STARLINK-4217,PAYLOAD,2023-02-24 08:27:08,15.08874086,0.0001447,53.2188,34.1314,92.7295,267.3863,0.0010711,0.00016815,0.0,0 STARLINK-4217,1 52999U 22076P   23055.35218311  .00016815  00000-0  10711-2 0  9993,2 52999  53.2188  34.1314 0001447  92.7295 267.3863 15.08874086 35379,6917.776,95.435,540.642,538.64,0.0
52999.0,STARLINK-4217,PAYLOAD,2023-02-24 22:45:37,15.08844395,0.0002214,53.2188,31.4542,93.6014,266.5231,2.3871e-05,9.2e-07,0.0,0 STARLINK-4217,1 52999U 22076P   23055.94834823  .00000092  00000-0  23871-4 0  9993,2 52999  53.2188  31.4542 0002214  93.6014 266.5231 15.08844395 35936,6917.867,95.437,541.264,538.2,0.0
52999.0,STARLINK-4217,PAYLOAD,2023-02-25 08:17:56,15.0884381,0.0001297,53.2191,29.6715,100.9723,259.1415,0.0003641,5.512e-05,0.0,0 STARLINK-4217,1 52999U 22076P   23056.34578808  .00005512  00000-0  36410-3 0  9990,2 52999  53.2191  29.6715 0001297 100.9723 259.1415 15.08843810 35528,6917.869,95.437,540.631,538.836,0.0
52999.0,STARLINK-4217,PAYLOAD,2023-02-26 03:22:33,15.08849583,0.000132,53.218,26.1041,105.6545,254.4593,0.00058172,8.985e-05,0.0,0 STARLINK-4217,1 52999U 22076P   23057.14066809  .00008985  00000-0  58172-3 0  9998,2 52999  53.2180  26.1041 0001320 105.6545 254.4593 15.08849583 36115,6917.851,95.437,540.629,538.803,0.0
52999.0,STARLINK-4217,PAYLOAD,2023-02-26 06:33:19,15.08859639,0.0001317,53.2187,25.5091,103.046,257.0679,0.00080806,0.00012603,0.0,0 STARLINK-4217,1 52999U 22076P   23057.27314544  .00012603  00000-0  80806-3 0  9995,2 52999  53.2187  25.5091 0001317 103.0460 257.0679 15.08859639 35660,6917.82,95.436,540.596,538.774,0.0
52999.0,STARLINK-4217,PAYLOAD,2023-02-26 20:51:48,15.08846869,0.0001534,53.2181,22.8332,94.6102,265.5065,0.00032063,4.819e-05,0.0,0 STARLINK-4217,1 52999U 22076P   23057.86930775  .00004819  00000-0  32063-3 0  9992,2 52999  53.2181  22.8332 0001534  94.6102 265.5065 15.08846869 36228,6917.859,95.437,540.786,538.663,0.0
52999.0,STARLINK-4217,PAYLOAD,2023-02-27 07:59:29,15.08860574,0.0001202,53.218,20.7515,95.0202,265.0928,0.00072067,0.00011207,0.0,0 STARLINK-4217,1 52999U 22076P   23058.33298339  .00011207  00000-0  72067-3 0  9995,2 52999  53.2180  20.7515 0001202  95.0202 265.0928 15.08860574 35822,6917.818,95.436,540.514,538.851,0.0
52999.0,STARLINK-4217,PAYLOAD,2023-02-28 06:14:51,15.088919,9.68e-05,53.216,16.588,88.6957,271.4146,0.0010751,0.00016888,0.0,0 STARLINK-4217,1 52999U 22076P   23059.26032123  .00016888  00000-0  10751-2 0  9996,2 52999  53.2160  16.5880 0000968  88.6957 271.4146 15.08891900 35966,6917.722,95.434,540.256,538.917,0.0
52999.0,STARLINK-4217,PAYLOAD,2023-03-01 04:30:19,15.08777369,0.0001752,53.2158,12.4251,96.9998,263.1193,0.00049185,7.535e-05,0.0,0 STARLINK-4217,1 52999U 22076P   23060.18772407  .00007535  00000-0  49185-3 0  9998,2 52999  53.2158  12.4251 0001752  96.9998 263.1193 15.08777369 36579,6918.072,95.442,541.149,538.725,0.0
52999.0,STARLINK-4217,PAYLOAD,2023-03-01 07:41:05,15.08782814,0.0001651,53.2156,11.8307,98.9254,261.1925,0.00027372,4.064e-05,0.0,0 STARLINK-4217,1 52999U 22076P   23060.32020712  .00004064  00000-0  27372-3 0  9997,2 52999  53.2156  11.8307 0001651  98.9254 261.1925 15.08782814 36120,6918.055,95.441,541.062,538.778,0.0
52999.0,STARLINK-4217,PAYLOAD,2023-03-02 02:45:43,15.08857233,0.0001857,53.2166,8.2635,96.0378,264.0826,0.0016245,0.00025673,0.0,0 STARLINK-4217,1 52999U 22076P   23061.11508249  .00025673  00000-0  16245-2 0  9996,2 52999  53.2166   8.2635 0001857  96.0378 264.0826 15.08857233 36714,6917.828,95.436,540.977,538.408,0.0
52999.0,STARLINK-4217,PAYLOAD,2023-03-03 05:47:15,15.08880703,0.0001781,53.2158,3.2067,78.7533,281.3659,0.00060618,9.383e-05,0.0,0 STARLINK-4217,1 52999U 22076P   23062.24114714  .00009383  00000-0  60618-3 0  9995,2 52999  53.2158   3.2067 0001781  78.7533 281.3659 15.08880703 36887,6917.756,95.435,540.853,538.389,0.0
52999.0,STARLINK-4217,PAYLOAD,2023-03-04 02:27:15,15.08864145,0.0001732,53.2177,359.3412,95.255,264.864,0.0013415,0.00021141,0.0,0 STARLINK-4217,1 52999U 22076P   23063.10226211  .00021141  00000-0  13415-2 0  9995,2 52999  53.2177 359.3412 0001732  95.2550 264.8640 15.08864145 37010,6917.807,95.436,540.87,538.473,0.0
52999.0,STARLINK-4217,PAYLOAD,2023-03-05 02:18:03,15.08829197,0.0001329,53.2164,354.8787,96.7078,263.4066,0.00054031,8.319e-05,0.0,0 STARLINK-4217,1 52999U 22076P   23064.09587371  .00008319  00000-0  54031-3 0  9993,2 52999  53.2164 354.8787 0001329  96.7078 263.4066 15.08829197 37165,6917.913,95.438,540.698,538.859,0.0
52999.0,STARLINK-4217,PAYLOAD,2023-03-06 05:19:36,15.0885293,0.0001208,53.217,349.8269,98.2213,261.8916,0.0022342,0.00035461,0.0,0 STARLINK-4217,1 52999U 22076P   23065.22195469  .00035461  00000-0  22342-2 0  9999,2 52999  53.2170 349.8269 0001208  98.2213 261.8916 15.08852930 37331,6917.841,95.437,540.542,538.87,0.0
52999.0,STARLINK-4217,PAYLOAD,2023-03-06 19:38:05,15.08843424,0.000162,53.2163,347.1493,99.6755,260.442,0.0002928,4.375e-05,0.0,0 STARLINK-4217,1 52999U 22076P   23065.81811831  .00004375  00000-0  29280-3 0  9991,2 52999  53.2163 347.1493 0001620  99.6755 260.4420 15.08843424 37420,6917.87,95.437,540.856,538.614,0.0
52999.0,STARLINK-4217,PAYLOAD,2023-03-07 03:35:00,15.08864355,0.0001089,53.2163,345.6637,92.709,267.4026,0.0010585,0.00016609,0.0,0 STARLINK-4217,1 52999U 22076P   23066.14931132  .00016609  00000-0  10585-2 0  9995,2 52999  53.2163 345.6637 0001089  92.7090 267.4026 15.08864355 37478,6917.806,95.436,540.424,538.918,0.0
52999.0,STARLINK-4217,PAYLOAD,2023-03-07 17:53:29,15.08845774,0.0001669,53.216,342.9872,81.1473,278.9708,0.00067708,0.00010506,0.0,0 STARLINK-4217,1 52999U 22076P   23066.74547834  .00010506  00000-0  67708-3 0  9993,2 52999  53.2160 342.9872 0001669  81.1473 278.9708 15.08845774 37565,6917.863,95.437,540.882,538.573,0.0
52999.0,STARLINK-4217,PAYLOAD,2023-03-08 17:44:16,15.08836136,0.0001188,53.2146,338.5242,86.4355,273.6772,0.00041614,6.34e-05,0.0,0 STARLINK-4217,1 52999U 22076P   23067.73908242  .00006340  00000-0  41614-3 0  9996,2 52999  53.2146 338.5242 0001188  86.4355 273.6772 15.08836136 37244,6917.892,95.438,540.579,538.935,0.0
52999.0,STARLINK-4217,PAYLOAD,2023-03-09 00:05:49,15.08852458,0.0001036,53.2136,337.3362,80.8181,279.2929,0.0010977,0.00017231,0.0,0 STARLINK-4217,1 52999U 22076P   23068.00404117  .00017231  00000-0  10977-2 0  9997,2 52999  53.2136 337.3362 0001036  80.8181 279.2929 15.08852458 37757,6917.842,95.437,540.424,538.991,0.0
52999.0,STARLINK-4217,PAYLOAD,2023-03-09 17:35:04,15.08861198,0.0001523,53.2162,334.0657,70.038,290.0776,0.0017369,0.00027479,0.0,0 STARLINK-4217,1 52999U 22076P   23068.73268525  .00027479  00000-0  17369-2 0  9995,2 52999  53.2162 334.0657 0001523  70.0380 290.0776 15.08861198 37864,6917.816,95.436,540.734,538.627,0.0
52999.0,STARLINK-4217,PAYLOAD,2023-03-09 22:21:13,15.08865611,0.0001337,53.2165,333.1742,76.5581,283.556,0.0018899,0.00029939,0.0,0 STARLINK-4217,1 52999U 22076P   23068.93140214  .00029939  00000-0  18899-2 0  9993,2 52999  53.2165 333.1742 0001337  76.5581 283.5560 15.08865611 37423,6917.802,95.436,540.592,538.742,0.0
52999.0,STARLINK-4217,PAYLOAD,2023-03-10 11:04:17,15.08865794,0.0001515,53.2159,330.7952,94.0224,266.0941,0.00090294,0.00014122,0.0,0 STARLINK-4217,1 52999U 22076P   23069.46131766  .00014122  00000-0  90294-3 0  9992,2 52999  53.2159 330.7952 0001515  94.0224 266.0941 15.08865794 37970,6917.802,95.436,540.715,538.619,0.0
52999.0,STARLINK-4217,PAYLOAD,2023-03-10 17:25:50,15.08839621,0.0002262,53.2162,329.6071,94.4073,265.7178,0.00060188,9.304e-05,0.0,0 STARLINK-4217,1 52999U 22076P   23069.72628312  .00009304  00000-0  60188-3 0  9994,2 52999  53.2162 329.6071 0002262  94.4073 265.7178 15.08839621 38013,6917.882,95.438,541.311,538.182,0.0
52999.0,STARLINK-4217,PAYLOAD,2023-03-10 20:36:37,15.08832781,0.0001437,53.2165,329.0119,103.8361,256.2791,0.0010849,0.00017017,0.0,0 STARLINK-4217,1 52999U 22076P   23069.85876327  .00017017  00000-0  10849-2 0  9997,2 52999  53.2165 329.0119 0001437 103.8361 256.2791 15.08832781 37566,6917.902,95.438,540.762,538.773,0.0
52999.0,STARLINK-4217,PAYLOAD,2023-03-11 02:58:09,15.08847793,0.0001601,53.2164,327.8223,95.7306,264.3869,0.0025918,0.00041211,0.0,0 STARLINK-4217,1 52999U 22076P   23070.12372595  .00041211  00000-0  25918-2 0  9993,2 52999  53.2164 327.8223 0001601  95.7306 264.3869 15.08847793 38070,6917.857,95.437,540.829,538.614,0.0
52999.0,STARLINK-4217,PAYLOAD,2023-03-12 02:48:57,15.0886359,0.00013,53.2165,323.3605,82.2212,277.8927,0.0018094,0.00028645,0.0,0 STARLINK-4217,1 52999U 22076P   23071.11732806  .00028645  00000-0  18094-2 0  9991,2 52999  53.2165 323.3605 0001300  82.2212 277.8927 15.08863590 38223,6917.808,95.436,540.573,538.774,0.0
52999.0,STARLINK-4217,PAYLOAD,2023-03-13 01:04:21,15.08853146,0.0001618,53.2159,319.1956,77.5089,282.6084,0.00097288,0.00015235,0.0,0 STARLINK-4217,1 52999U 22076P   23072.04468979  .00015235  00000-0  97288-3 0  9995,2 52999  53.2159 319.1956 0001618  77.5089 282.6084 15.08853146 38368,6917.84,95.437,540.825,538.586,0.0
52999.0,STARLINK-4217,PAYLOAD,2023-03-13 21:44:22,15.08832753,0.0001066,53.2158,315.3314,107.0152,253.0957,0.00071335,0.00011081,0.0,0 STARLINK-4217,1 52999U 22076P   23072.90581569  .00011081  00000-0  71335-3 0  9991,2 52999  53.2158 315.3314 0001066 107.0152 253.0957 15.08832753 38025,6917.903,95.438,540.505,539.03,0.0
52999.0,STARLINK-4217,PAYLOAD,2023-03-14 00:55:08,15.08831943,0.0001048,53.2157,314.7363,89.1695,270.9417,0.00057904,8.938e-05,0.0,0 STARLINK-4217,1 52999U 22076P   23073.03829752  .00008938  00000-0  57904-3 0  9998,2 52999  53.2157 314.7363 0001048  89.1695 270.9417 15.08831943 38516,6917.905,95.438,540.495,539.045,0.0
